[{"OBJECT_NAME":"OBJECT L","OBJECT_ID":"2023-085L","EPOCH":"2026-03-09T23:02:21.999840","MEAN_MOTION":15.29079976,"ECCENTRICITY":0.0005428,"INCLINATION":97.486,"RA_OF_ASC_NODE":178.8598,"ARG_OF_PERICENTER":50.8528,"MEAN_ANOMALY":309.3193,"EPHEMERIS_TYPE":0,"CLASSIFICATION_TYPE":"U","NORAD_CAT_ID":57014,"ELEMENT_SET_NO":999,"REV_AT_EPOCH":15144,"BSTAR":0.00063462603,"MEAN_MOTION_DOT":0.00017871,"MEAN_MOTION_DDOT":0},{"OBJECT_NAME":"STARLINK-35718","OBJECT_ID":"2025-283S","EPOCH":"2026-03-09T03:36:09.616320","MEAN_MOTION":15.30205121,"ECCENTRICITY":0.00013865,"INCLINATION":53.1623,"RA_OF_ASC_NODE":26.5203,"ARG_OF_PERICENTER":41.6262,"MEAN_ANOMALY":318.4844,"EPHEMERIS_TYPE":0,"CLASSIFICATION_TYPE":"U","NORAD_CAT_ID":66894,"ELEMENT_SET_NO":999,"REV_AT_EPOCH":1576,"BSTAR":0.0013287102,"MEAN_MOTION_DOT":0.00039207,"MEAN_MOTION_DDOT":0}]
